NORAD_CAT_ID,OBJECT_NAME,OBJECT_TYPE,EPOCH,MEAN_MOTION,ECCENTRICITY,INCLINATION,RA_OF_ASC_NODE,ARG_OF_PERICENTER,MEAN_ANOMALY,BSTAR,MEAN_MOTION_DOT,MEAN_MOTION_DDOT,TLE_LINE0,TLE_LINE1,TLE_LINE2,SEMIMAJOR_AXIS,PERIOD,APOGEE,PERIGEE,DECAYED
54068.0,STARLINK-5222,PAYLOAD,2024-08-07 00:04:34,15.08841448,0.0001194,53.2159,66.2443,95.0512,265.0616,0.00051912,7.984e-05,0.0,0 STARLINK-5222,1 54068U 22136T   24220.00317603  .00007984  00000-0  51912-3 0  9996,2 54068  53.2159  66.2443 0001194  95.0512 265.0616 15.08841448 99335,6917.876,95.437,540.567,538.915,0.0
54068.0,STARLINK-5222,PAYLOAD,2024-08-07 19:09:12,15.08845146,0.0001155,53.2168,62.6747,103.7231,256.389,0.00037214,5.641e-05,0.0,0 STARLINK-5222,1 54068U 22136T   24220.79805649  .00005641  00000-0  37214-3 0  9991,2 54068  53.2168  62.6747 0001155 103.7231 256.3890 15.08845146 99453,6917.865,95.437,540.529,538.931,0.0
54068.0,STARLINK-5222,PAYLOAD,2024-08-08 20:35:22,15.08853859,0.0001103,53.2172,57.9177,87.3126,272.7992,0.00040401,6.15e-05,0.0,0 STARLINK-5222,1 54068U 22136T   24221.85789486  .00006150  00000-0  40401-3 0  9997,2 54068  53.2172  57.9177 0001103  87.3126 272.7992 15.08853859100093,6917.838,95.437,540.466,538.94,0.0
54068.0,STARLINK-5222,PAYLOAD,2024-08-08 22:10:45,15.08855244,0.0001085,53.2167,57.6197,90.7406,269.371,0.00046136,7.065e-05,0.0,0 STARLINK-5222,1 54068U 22136T   24221.92413400  .00007065  00000-0  46136-3 0  9992,2 54068  53.2167  57.6197 0001085  90.7406 269.3710 15.08855244 99620,6917.834,95.437,540.449,538.948,0.0
54068.0,STARLINK-5222,PAYLOAD,2024-08-09 12:29:14,15.0883192,0.0001103,53.2166,54.9471,97.7083,262.4035,-4.3547e-05,-9.81e-06,0.0,0 STARLINK-5222,1 54068U 22136T   24222.52030304 -.00000981  00000-0 -43547-4 0  9993,2 54068  53.2166  54.9471 0001103  97.7083 262.4035 15.08831920100197,6917.905,95.438,540.533,539.007,0.0
54068.0,STARLINK-5222,PAYLOAD,2024-08-09 22:01:32,15.08850787,0.0001033,53.2167,53.1592,111.2027,248.9076,0.00033548,5.057e-05,0.0,0 STARLINK-5222,1 54068U 22136T   24222.91773629  .00005057  00000-0  33548-3 0  9996,2 54068  53.2167  53.1592 0001033 111.2027 248.9076 15.08850787 99772,6917.847,95.437,540.427,538.998,0.0
54068.0,STARLINK-5222,PAYLOAD,2024-08-10 12:20:01,15.08840662,0.000116,53.2167,50.4848,107.2934,252.8185,4.6493e-05,4.52e-06,0.0,0 STARLINK-5222,1 54068U 22136T   24223.51390196  .00000452  00000-0  46493-4 0  9995,2 54068  53.2167  50.4848 0001160 107.2934 252.8185 15.08840662100341,6917.878,95.438,540.546,538.941,0.0
54068.0,STARLINK-5222,PAYLOAD,2024-08-10 20:16:56,15.08859111,9.55e-05,53.2173,48.9976,93.5065,266.6036,0.00065542,0.00010164,0.0,0 STARLINK-5222,1 54068U 22136T   24223.84509818  .00010164  00000-0  65542-3 0  9990,2 54068  53.2173  48.9976 0000955  93.5065 266.6036 15.08859111100397,6917.822,95.436,540.348,539.026,0.0
54068.0,STARLINK-5222,PAYLOAD,2024-08-11 05:49:15,15.08845918,8.15e-05,53.2168,47.2139,99.6885,260.4199,0.00031165,4.676e-05,0.0,0 STARLINK-5222,1 54068U 22136T   24224.24253992  .00004676  00000-0  31165-3 0  9999,2 54068  53.2168  47.2139 0000815  99.6885 260.4199 15.08845918100455,6917.862,95.437,540.291,539.163,0.0
54068.0,STARLINK-5222,PAYLOAD,2024-08-11 18:32:20,15.08848351,0.0001607,53.2173,44.8355,87.6135,272.5041,0.00042852,6.54e-05,0.0,0 STARLINK-5222,1 54068U 22136T   24224.77246256  .00006540  00000-0  42852-3 0  9999,2 54068  53.2173  44.8355 0001607  87.6135 272.5041 15.08848351100059,6917.855,95.437,540.832,538.608,0.0
54068.0,STARLINK-5222,PAYLOAD,2024-08-12 05:40:02,15.088487,0.0001367,53.2181,42.7544,85.4239,274.6909,0.00044236,6.761e-05,0.0,0 STARLINK-5222,1 54068U 22136T   24225.23614133  .00006761  00000-0  44236-3 0  9997,2 54068  53.2181  42.7544 0001367  85.4239 274.6909 15.08848700100604,6917.854,95.437,540.664,538.773,0.0
54068.0,STARLINK-5222,PAYLOAD,2024-08-12 19:58:30,15.08869789,0.0001594,53.2175,40.0752,99.8442,260.273,0.00088079,0.00013769,0.0,0 STARLINK-5222,1 54068U 22136T   24225.83229315  .00013769  00000-0  88079-3 0  9996,2 54068  53.2175  40.0752 0001594  99.8442 260.2730 15.08869789100216,6917.789,95.436,540.757,538.552,0.0
54068.0,STARLINK-5222,PAYLOAD,2024-08-13 11:52:22,15.08819358,0.0002451,53.2149,37.1033,92.0307,268.0966,-0.0003444,-5.762e-05,0.0,0 STARLINK-5222,1 54068U 22136T   24226.49471021 -.00005762  00000-0 -34440-3 0  9991,2 54068  53.2149  37.1033 0002451  92.0307 268.0966 15.08819358100791,6917.943,95.439,541.504,538.113,0.0
54068.0,STARLINK-5222,PAYLOAD,2024-08-13 19:49:20,15.08790389,0.0001331,53.2181,35.6163,68.7724,291.341,-0.0007065,-0.00011499,0.0,0 STARLINK-5222,1 54068U 22136T   24226.82592731 -.00011499  00000-0 -70650-3 0  9997,2 54068  53.2181  35.6163 0001331  68.7724 291.3410 15.08790389100844,6918.032,95.441,540.818,538.976,0.0
54068.0,STARLINK-5222,PAYLOAD,2024-08-13 21:24:43,15.08788523,0.00013,53.2184,35.3199,68.1668,291.9463,-0.00064793,-0.0001057,0.0,0 STARLINK-5222,1 54068U 22136T   24226.89217025 -.00010570  00000-0 -64793-3 0  9994,2 54068  53.2184  35.3199 0001300  68.1668 291.9463 15.08788523100379,6918.038,95.441,540.802,539.003,0.0
54068.0,STARLINK-5222,PAYLOAD,2024-08-14 03:46:16,15.08799979,9.45e-05,53.2185,34.1341,59.1857,300.9229,0.00075915,0.00011801,0.0,0 STARLINK-5222,1 54068U 22136T   24227.15713607  .00011801  00000-0  75915-3 0  9995,2 54068  53.2185  34.1341 0000945  59.1857 300.9229 15.08799979100895,6918.003,95.44,540.521,539.214,0.0
54068.0,STARLINK-5222,PAYLOAD,2024-08-14 14:53:58,15.08837089,0.0001365,53.2171,32.0501,67.2873,292.8263,0.0021189,0.00033593,0.0,0 STARLINK-5222,1 54068U 22136T   24227.62081645  .00033593  00000-0  21189-2 0  9992,2 54068  53.2171  32.0501 0001365  67.2873 292.8263 15.08837089100487,6917.889,95.438,540.699,538.81,0.0
54068.0,STARLINK-5222,PAYLOAD,2024-08-14 18:04:44,15.08842773,0.0001379,53.2173,31.4563,59.9375,300.1754,0.0014107,0.00022236,0.0,0 STARLINK-5222,1 54068U 22136T   24227.75329170  .00022236  00000-0  14107-2 0  9998,2 54068  53.2173  31.4563 0001379  59.9375 300.1754 15.08842773100989,6917.872,95.437,540.691,538.783,0.0
54068.0,STARLINK-5222,PAYLOAD,2024-08-15 03:37:02,15.08856173,0.0001437,53.2169,29.6722,59.3405,300.7729,0.00094874,0.0001485,0.0,0 STARLINK-5222,1 54068U 22136T   24228.15072697  .00014850  00000-0  94874-3 0  9995,2 54068  53.2169  29.6722 0001437  59.3405 300.7729 15.08856173100564,6917.831,95.437,540.69,538.702,0.0
54068.0,STARLINK-5222,PAYLOAD,2024-08-15 17:55:29,15.08871028,0.0001314,53.2171,26.9958,49.6004,310.5103,0.00039096,5.945e-05,0.0,0 STARLINK-5222,1 54068U 22136T   24228.74687235  .00005945  00000-0  39096-3 0  9990,2 54068  53.2171  26.9958 0001314  49.6004 310.5103 15.08871028100650,6917.786,95.436,540.56,538.742,0.0
54068.0,STARLINK-5222,PAYLOAD,2024-08-16 03:27:47,15.08870588,0.0001221,53.2166,25.2118,51.5128,308.5974,0.00017636,2.522e-05,0.0,0 STARLINK-5222,1 54068U 22136T   24229.14430426  .00002522  00000-0  17636-3 0  9997,2 54068  53.2166  25.2118 0001221  51.5128 308.5974 15.08870588101193,6917.787,95.436,540.497,538.807,0.0
54068.0,STARLINK-5222,PAYLOAD,2024-08-16 19:21:37,15.08885666,0.000115,53.2164,22.2379,52.1056,308.004,0.00041655,6.356e-05,0.0,0 STARLINK-5222,1 54068U 22136T   24229.80668420  .00006356  00000-0  41655-3 0  9994,2 54068  53.2164  22.2379 0001150  52.1056 308.0040 15.08885666101298,6917.741,95.435,540.401,538.81,0.0
54068.0,STARLINK-5222,PAYLOAD,2024-08-17 19:12:28,15.08819117,0.0006649,53.2173,17.7749,63.7829,296.3846,-0.00025977,-4.422e-05,0.0,0 STARLINK-5222,1 54068U 22136T   24230.80032992 -.00004422  00000-0 -25977-3 0  9998,2 54068  53.2173  17.7749 0006649  63.7829 296.3846 15.08819117101440,6917.944,95.439,544.409,535.209,0.0
54068.0,STARLINK-5222,PAYLOAD,2024-08-18 06:00:00,15.08806571,0.0001232,53.2167,15.7577,82.114,202.001,0.0040569,0.00064812,0.0,0 STARLINK-5222,1 54068U 22136T   24231.25001157  .00064812  00000-0  40569-2 0  9997,2 54068  53.2167  15.7577 0001232  82.1140 202.0010 15.08806571101519,6917.983,95.44,540.7,538.995,0.0
54068.0,STARLINK-5222,PAYLOAD,2024-08-18 09:30:55,15.08819911,6.23e-05,53.2172,15.0979,322.5569,37.538,0.00010661,1.409e-05,0.0,0 STARLINK-5222,1 54068U 22136T   24231.39647144  .00001409  00000-0  10661-3 0  9998,2 54068  53.2172  15.0979 0000623 322.5569  37.5380 15.08819911101538,6917.942,95.439,540.238,539.376,0.0
54068.0,STARLINK-5222,PAYLOAD,2024-08-18 19:03:14,15.08852297,0.0001503,53.2186,13.317,104.173,255.9429,0.0011675,0.00018348,0.0,0 STARLINK-5222,1 54068U 22136T   24231.79391300  .00018348  00000-0  11675-2 0  9997,2 54068  53.2186  13.3170 0001503 104.1730 255.9429 15.08852297101599,6917.843,95.437,540.748,538.668,0.0
54068.0,STARLINK-5222,PAYLOAD,2024-08-19 09:21:42,15.08847768,0.0001193,53.2181,10.6422,75.0655,285.0469,0.00054214,8.353e-05,0.0,0 STARLINK-5222,1 54068U 22136T   24232.39007410  .00008353  00000-0  54214-3 0  9992,2 54068  53.2181  10.6422 0001193  75.0655 285.0469 15.08847768101686,6917.857,95.437,540.547,538.896,0.0
54068.0,STARLINK-5222,PAYLOAD,2024-08-20 12:23:15,15.08848839,0.0001714,53.2168,5.5837,102.5629,257.5555,0.00042222,6.44e-05,0.0,0 STARLINK-5222,1 54068U 22136T   24233.51615059  .00006440  00000-0  42222-3 0  9992,2 54068  53.2168   5.5837 0001714 102.5629 257.5555 15.08848839101859,6917.853,95.437,540.904,538.533,0.0
54068.0,STARLINK-5222,PAYLOAD,2024-08-20 13:58:38,15.08849538,0.0001573,53.2179,5.2885,90.6307,269.4866,0.00030577,4.583e-05,0.0,0 STARLINK-5222,1 54068U 22136T   24233.58239041  .00004583  00000-0  30577-3 0  9998,2 54068  53.2179   5.2885 0001573  90.6307 269.4866 15.08849538101386,6917.851,95.437,540.804,538.628,0.0
54068.0,STARLINK-5222,PAYLOAD,2024-08-21 06:00:00,15.0879849,0.0001336,53.2182,2.2904,104.3946,284.1078,0.0047285,0.00075689,0.0,0 STARLINK-5222,1 54068U 22136T   24234.25001157  .00075689  00000-0  47285-2 0  9996,2 54068  53.2182   2.2904 0001336 104.3946 284.1078 15.08798490101961,6918.007,95.44,540.797,538.948,0.0
